start=new Date('2021-12-20T00:00:00.000Z').valueOf();
sats=[{"CENTER_NAME":"EARTH","GP_ID":"192014455","PERIOD":"89.058","OBJECT_NAME":"STARLINK-1023","MEAN_MOTION_DOT":"0.04220217","DECAY_DATE":null,"ELEMENT_SET_NO":"999","MEAN_MOTION":"16.16932254","FILE":"3244607","RA_OF_ASC_NODE":"200.3466","BSTAR":"0.00353210000000","COUNTRY_CODE":"US","SITE":"AFETR","TLE_LINE1":"1 44728U 19074R   21353.73243549  .04220217  41112-1  35321-2 0  9991","TLE_LINE2":"2 44728  53.0385 200.3466 0007054 267.1665  92.8748 16.16932254117557","PERIAPSIS":"223.236","CLASSIFICATION_TYPE":"U","SEMIMAJOR_AXIS":"6606.031","EPOCH":"2021-12-19T17:34:42.426336","MEAN_MOTION_DDOT":"0.0411120000000","EPHEMERIS_TYPE":"0","REV_AT_EPOCH":"11755","ECCENTRICITY":"0.00070540","OBJECT_ID":"2019-074R","TIME_SYSTEM":"UTC","ARG_OF_PERICENTER":"267.1665","RCS_SIZE":"LARGE","NORAD_CAT_ID":"44728","REF_FRAME":"TEME","APOAPSIS":"232.556","OBJECT_TYPE":"PAYLOAD","MEAN_ANOMALY":"92.8748","INCLINATION":"53.0385","LAUNCH_DATE":"2019-11-11","MEAN_ELEMENT_THEORY":"SGP4"},{"MEAN_MOTION":"15.08505587","ELEMENT_SET_NO":"999","RA_OF_ASC_NODE":"279.9252","FILE":"3244825","OBJECT_NAME":"STARLINK-1024","PERIOD":"95.459","CENTER_NAME":"EARTH","GP_ID":"192038717","DECAY_DATE":null,"MEAN_MOTION_DOT":"0.00010282","TLE_LINE1":"1 44729U 19074S   21353.80897290  .00010282  00000-0  66912-3 0  9994","TLE_LINE2":"2 44729  53.0013 279.9252 0002613  73.8250 286.3027 15.08505587116250","BSTAR":"0.00066912000000","COUNTRY_CODE":"US","SITE":"AFETR","REV_AT_EPOCH":"11625","EPHEMERIS_TYPE":"0","RCS_SIZE":"LARGE","ECCENTRICITY":"0.00026130","OBJECT_ID":"2019-074S","TIME_SYSTEM":"UTC","ARG_OF_PERICENTER":"73.8250","SEMIMAJOR_AXIS":"6918.903","PERIAPSIS":"538.960","CLASSIFICATION_TYPE":"U","MEAN_MOTION_DDOT":"0.0000000000000","EPOCH":"2021-12-19T19:24:55.258560","MEAN_ANOMALY":"286.3027","MEAN_ELEMENT_THEORY":"SGP4","LAUNCH_DATE":"2019-11-11","INCLINATION":"53.0013","REF_FRAME":"TEME","NORAD_CAT_ID":"44729","OBJECT_TYPE":"PAYLOAD","APOAPSIS":"542.576"},{"ELEMENT_SET_NO":"999","MEAN_MOTION":"15.06404156","FILE":"3244825","RA_OF_ASC_NODE":"263.4366","CENTER_NAME":"EARTH","GP_ID":"192039469","PERIOD":"95.592","OBJECT_NAME":"STARLINK-1026","DECAY_DATE":null,"MEAN_MOTION_DOT":"0.00001531","TLE_LINE1":"1 44731U 19074U   21353.91228005  .00001531  00000-0  12164-3 0  9998","TLE_LINE2":"2 44731  53.0536 263.4366 0002530  62.8004 297.3243 15.06404156116519","BSTAR":"0.00012164000000","COUNTRY_CODE":"US","SITE":"AFETR","EPHEMERIS_TYPE":"0","REV_AT_EPOCH":"11651","ARG_OF_PERICENTER":"62.8004","ECCENTRICITY":"0.00025300","OBJECT_ID":"2019-074U","TIME_SYSTEM":"UTC","RCS_SIZE":"LARGE","PERIAPSIS":"545.449","CLASSIFICATION_TYPE":"U","SEMIMAJOR_AXIS":"6925.336","EPOCH":"2021-12-19T21:53:40.996320","MEAN_MOTION_DDOT":"0.0000000000000","MEAN_ANOMALY":"297.3243","MEAN_ELEMENT_THEORY":"SGP4","LAUNCH_DATE":"2019-11-11","INCLINATION":"53.0536","NORAD_CAT_ID":"44731","REF_FRAME":"TEME","APOAPSIS":"548.953","OBJECT_TYPE":"PAYLOAD"},{"INCLINATION":"53.0543","LAUNCH_DATE":"2019-11-11","MEAN_ELEMENT_THEORY":"SGP4","MEAN_ANOMALY":"297.7973","APOAPSIS":"548.638","OBJECT_TYPE":"PAYLOAD","NORAD_CAT_ID":"44732","REF_FRAME":"TEME","OBJECT_ID":"2019-074V","ECCENTRICITY":"0.00021230","TIME_SYSTEM":"UTC","ARG_OF_PERICENTER":"62.3232","RCS_SIZE":"LARGE","EPHEMERIS_TYPE":"0","REV_AT_EPOCH":"11622","EPOCH":"2021-12-19T19:59:33.660672","MEAN_MOTION_DDOT":"0.0000000000000","PERIAPSIS":"545.698","CLASSIFICATION_TYPE":"U","SEMIMAJOR_AXIS":"6925.303","TLE_LINE2":"2 44732  53.0543 283.7958 0002123  62.3232 297.7973 15.06414866116227","TLE_LINE1":"1 44732U 19074V   21353.83302848 -.00001171  00000-0 -59706-4 0  9994","SITE":"AFETR","COUNTRY_CODE":"US","BSTAR":"-0.00005970600000","FILE":"3244825","RA_OF_ASC_NODE":"283.7958","ELEMENT_SET_NO":"999","MEAN_MOTION":"15.06414866","DECAY_DATE":null,"MEAN_MOTION_DOT":"-0.00001171","GP_ID":"192039219","CENTER_NAME":"EARTH","PERIOD":"95.591","OBJECT_NAME":"STARLINK-1027"},{"CENTER_NAME":"EARTH","GP_ID":"192037967","OBJECT_NAME":"STARLINK-1028","PERIOD":"95.592","DECAY_DATE":null,"MEAN_MOTION_DOT":"0.00001138","ELEMENT_SET_NO":"999","MEAN_MOTION":"15.06408956","RA_OF_ASC_NODE":"263.5107","FILE":"3244825","BSTAR":"0.00009525400000","COUNTRY_CODE":"US","SITE":"AFETR","TLE_LINE1":"1 44733U 19074W   21353.89753258  .00001138  00000-0  95254-4 0  9995","TLE_LINE2":"2 44733  53.0553 263.5107 0002422  61.3036 298.8196 15.06408956116518","CLASSIFICATION_TYPE":"U","PERIAPSIS":"545.509","SEMIMAJOR_AXIS":"6925.321","EPOCH":"2021-12-19T21:32:26.814912","MEAN_MOTION_DDOT":"0.0000000000000","EPHEMERIS_TYPE":"0","REV_AT_EPOCH":"11651","OBJECT_ID":"2019-074W","TIME_SYSTEM":"UTC","ARG_OF_PERICENTER":"61.3036","ECCENTRICITY":"0.00024220","RCS_SIZE":"LARGE","REF_FRAME":"TEME","NORAD_CAT_ID":"44733","OBJECT_TYPE":"PAYLOAD","APOAPSIS":"548.863","MEAN_ANOMALY":"298.8196","LAUNCH_DATE":"2019-11-11","MEAN_ELEMENT_THEORY":"SGP4","INCLINATION":"53.0553"},{"BSTAR":"0.00009976900000","COUNTRY_CODE":"US","SITE":"AFETR","TLE_LINE1":"1 44734U 19074X   21353.84595112  .00001204  00000-0  99769-4 0  9993","TLE_LINE2":"2 44734  53.0553 183.7195 0002446  80.8279 279.2986 15.06394132117601","GP_ID":"192038217","CENTER_NAME":"EARTH","PERIOD":"95.593","OBJECT_NAME":"STARLINK-1029","DECAY_DATE":null,"MEAN_MOTION_DOT":"0.00001204","ELEMENT_SET_NO":"999","MEAN_MOTION":"15.06394132","FILE":"3244825","RA_OF_ASC_NODE":"183.7195","NORAD_CAT_ID":"44734","REF_FRAME":"TEME","APOAPSIS":"548.925","OBJECT_TYPE":"PAYLOAD","MEAN_ANOMALY":"279.2986","INCLINATION":"53.0553","LAUNCH_DATE":"2019-11-11","MEAN_ELEMENT_THEORY":"SGP4","PERIAPSIS":"545.538","CLASSIFICATION_TYPE":"U","SEMIMAJOR_AXIS":"6925.367","EPOCH":"2021-12-19T20:18:10.176768","MEAN_MOTION_DDOT":"0.0000000000000","EPHEMERIS_TYPE":"0","REV_AT_EPOCH":"11760","ECCENTRICITY":"0.00024460","OBJECT_ID":"2019-074X","TIME_SYSTEM":"UTC","ARG_OF_PERICENTER":"80.8279","RCS_SIZE":"LARGE"},{"APOAPSIS":"548.772","OBJECT_TYPE":"PAYLOAD","NORAD_CAT_ID":"44735","REF_FRAME":"TEME","MEAN_ELEMENT_THEORY":"SGP4","LAUNCH_DATE":"2019-11-11","INCLINATION":"53.0535","MEAN_ANOMALY":"296.8680","MEAN_MOTION_DDOT":"0.0000000000000","EPOCH":"2021-12-19T20:10:11.397216","SEMIMAJOR_AXIS":"6925.344","CLASSIFICATION_TYPE":"U","PERIAPSIS":"545.645","RCS_SIZE":"LARGE","TIME_SYSTEM":"UTC","OBJECT_ID":"2019-074Y","ARG_OF_PERICENTER":"63.2539","ECCENTRICITY":"0.00022580","REV_AT_EPOCH":"11622","EPHEMERIS_TYPE":"0","SITE":"AFETR","COUNTRY_CODE":"US","BSTAR":"0.00011940000000","TLE_LINE2":"2 44735  53.0535 283.7688 0002258  63.2539 296.8680 15.06401623116222","TLE_LINE1":"1 44735U 19074Y   21353.84040969  .00001497  00000-0  11940-3 0  9997","MEAN_MOTION_DOT":"0.00001497","DECAY_DATE":null,"PERIOD":"95.592","OBJECT_NAME":"STARLINK-1030","CENTER_NAME":"EARTH","GP_ID":"192038969","FILE":"3244825","RA_OF_ASC_NODE":"283.7688","MEAN_MOTION":"15.06401623","ELEMENT_SET_NO":"999"},{"APOAPSIS":"548.620","OBJECT_TYPE":"PAYLOAD","NORAD_CAT_ID":"44736","REF_FRAME":"TEME","MEAN_ELEMENT_THEORY":"SGP4","LAUNCH_DATE":"2019-11-11","INCLINATION":"53.0554","MEAN_ANOMALY":"292.7919","EPOCH":"2021-12-19T20:31:24.550464","MEAN_MOTION_DDOT":"0.0000000000000","PERIAPSIS":"545.787","CLASSIFICATION_TYPE":"U","SEMIMAJOR_AXIS":"6925.339","OBJECT_ID":"2019-074Z","ARG_OF_PERICENTER":"67.3286","ECCENTRICITY":"0.00020460","TIME_SYSTEM":"UTC","RCS_SIZE":"LARGE","EPHEMERIS_TYPE":"0","REV_AT_EPOCH":"11623","SITE":"AFETR","BSTAR":"0.00020445000000","COUNTRY_CODE":"US","TLE_LINE2":"2 44736  53.0554 283.7022 0002046  67.3286 292.7919 15.06403270116236","TLE_LINE1":"1 44736U 19074Z   21353.85514526  .00002765  00000-0  20445-3 0  9993","MEAN_MOTION_DOT":"0.00002765","DECAY_DATE":null,"CENTER_NAME":"EARTH","GP_ID":"192039720","PERIOD":"95.592","OBJECT_NAME":"STARLINK-1031","FILE":"3244825","RA_OF_ASC_NODE":"283.7022","ELEMENT_SET_NO":"999","MEAN_MOTION":"15.06403270"},{"SITE":"AFETR","COUNTRY_CODE":"US","BSTAR":"0.00010812000000","TLE_LINE2":"2 44737  53.0551 285.1430 0002093  60.2980 299.8217 15.06409032116183","TLE_LINE1":"1 44737U 19074AA  21353.53447813  .00001329  00000-0  10812-3 0  9995","MEAN_MOTION_DOT":"0.00001329","DECAY_DATE":null,"GP_ID":"192010136","CENTER_NAME":"EARTH","OBJECT_NAME":"STARLINK-1032","PERIOD":"95.592","RA_OF_ASC_NODE":"285.1430","FILE":"3244588","ELEMENT_SET_NO":"999","MEAN_MOTION":"15.06409032","OBJECT_TYPE":"PAYLOAD","APOAPSIS":"548.635","REF_FRAME":"TEME","NORAD_CAT_ID":"44737","INCLINATION":"53.0551","LAUNCH_DATE":"2019-11-11","MEAN_ELEMENT_THEORY":"SGP4","MEAN_ANOMALY":"299.8217","EPOCH":"2021-12-19T12:49:38.910432","MEAN_MOTION_DDOT":"0.0000000000000","PERIAPSIS":"545.736","CLASSIFICATION_TYPE":"U","SEMIMAJOR_AXIS":"6925.321","ARG_OF_PERICENTER":"60.2980","TIME_SYSTEM":"UTC","OBJECT_ID":"2019-074AA","ECCENTRICITY":"0.00020930","RCS_SIZE":"LARGE","EPHEMERIS_TYPE":"0","REV_AT_EPOCH":"11618"},{"SITE":"AFETR","COUNTRY_CODE":"US","BSTAR":"0.00013337000000","TLE_LINE2":"2 44738  53.0542 283.9978 0002220  67.9472 292.1753 15.06406975116217","TLE_LINE1":"1 44738U 19074AB  21353.78511049  .00001706  00000-0  13337-3 0  9990","MEAN_MOTION_DOT":"0.00001706","DECAY_DATE":null,"OBJECT_NAME":"STARLINK-1033","PERIOD":"95.592","CENTER_NAME":"EARTH","GP_ID":"192038718","RA_OF_ASC_NODE":"283.9978","FILE":"3244825","MEAN_MOTION":"15.06406975","ELEMENT_SET_NO":"999","OBJECT_TYPE":"PAYLOAD","APOAPSIS":"548.730","REF_FRAME":"TEME","NORAD_CAT_ID":"44738","INCLINATION":"53.0542","LAUNCH_DATE":"2019-11-11","MEAN_ELEMENT_THEORY":"SGP4","MEAN_ANOMALY":"292.1753","MEAN_MOTION_DDOT":"0.0000000000000","EPOCH":"2021-12-19T18:50:33.546336","SEMIMAJOR_AXIS":"6925.327","PERIAPSIS":"545.655","CLASSIFICATION_TYPE":"U","RCS_SIZE":"LARGE","OBJECT_ID":"2019-074AB","ECCENTRICITY":"0.00022200","TIME_SYSTEM":"UTC","ARG_OF_PERICENTER":"67.9472","REV_AT_EPOCH":"11621","EPHEMERIS_TYPE":"0"}];
